#aV2019 11 21  0  0  0.00000000     288 DD+AD WGS84 FIT  NGA
## 2080 345600.00000000   300.00000000 58808 0.0000000000000
+   32     1  2  3  4  5  6  7  8  9 10 11 12 13 14 15 16 17
+         18 19 20 21 22 23 24 25 26 27 28 29 30 31 32  0  0
+          0  0  0  0  0  0  0  0  0  0  0  0  0  0  0  0  0
+          0  0  0  0  0  0  0  0  0  0  0  0  0  0  0  0  0
+          0  0  0  0  0  0  0  0  0  0  0  0  0  0  0  0  0
++         2  2  2  2  2  2  2  2  2  2  2  2  2  2  2  2  2
++         2  2  2  2  2  2  2  2  2  2  2  2  2  2  2  0  0
++         0  0  0  0  0  0  0  0  0  0  0  0  0  0  0  0  0
++         0  0  0  0  0  0  0  0  0  0  0  0  0  0  0  0  0
++         0  0  0  0  0  0  0  0  0  0  0  0  0  0  0  0  0
%c cc cc ccc ccc cccc cccc cccc cccc ccccc ccccc ccccc ccccc
%c cc cc ccc ccc cccc cccc cccc cccc ccccc ccccc ccccc ccccc
%f  0.0000000  0.000000000  0.00000000000  0.000000000000000
%f  0.0000000  0.000000000  0.00000000000  0.000000000000000
%i    0    0    0    0      0      0      0      0         0
%i    0    0    0    0      0      0      0      0         0
/*      NGA, ST. LOUIS,MO.                                  
/*   EPHEMERIS COMPUTED FROM 2 DAYS OF DATA                 
/*   EPOCHA v5 SMOOTHER                                     
/*   G1762 IERS2010 SATAF SATAPC                            
*  2019 11 21 10 25  0.00000000
P  1  22114.108298  14742.995290  -3088.089878   -204.501836                    
V  1  -4126.356137    -55.944656 -31610.055148     -0.126056                    
P  2  -4820.849751 -17703.161217  19871.550580   -351.129009                    
V  2  22079.065508   9130.455588  13818.053638     -0.076143                    
P  3  13140.337317  13731.833629  18529.859057    -40.069593                    
V  3   -936.472589  23635.761171 -16709.240516     -0.060032                    
P  4  23278.135150  -3166.944583  12345.104006    -11.417432                    
V  4 -12485.792068   9750.308951  26146.556913     -0.042102                    
P  5  -3351.984643 -26093.300963  -2899.083761     -3.722118                    
V  5   3095.633272  -3698.231390  31371.623933     -0.004741                    
P  6   9697.437792 -11533.749720  21920.911705   -130.410355                    
V  6  24146.367176  13507.842788  -3556.203126     -0.117740                    
P  7  23600.770984   3794.558198 -11788.623792   -153.447949                    
V  7  12146.312872   9489.569667  26259.651831     -0.081372                    
P  8   8941.179375  12078.661789 -21869.267592    -14.097913                    
V  8 -23590.723820  14743.309235  -1284.368432     -0.012694                    
P  9  23304.177760  -4654.310437  11813.847724    -88.889525                    
V  9 -11429.067016  10203.515893  26436.449766     -0.096595                    
P 10 -11720.137675  16095.390130 -17402.112076   -142.969651                    
V 10  -2294.439091 -22257.265157 -19189.237752     -0.146888                    
P 11  22272.841309   9582.391577 -10984.173649   -441.796201                    
V 11 -13603.142414   3194.047418 -26315.823883      0.111180                    
P 12  -9575.502161 -19109.194335  15660.683079    181.269176                    
V 12   2476.248643 -20075.176250 -22505.403400     -0.039603                    
P 13    952.112561 -16293.258666 -21061.260608    -31.495482                    
V 13  24474.664897 -10072.652918   9022.410726      0.023491                    
P 14 -13471.546630  17974.827127  14353.811358    -49.261570                    
V 14 -16839.916993   6007.235399 -24051.633890      0.021748                    
P 15 -11418.316262 -11458.518670 -21384.058805   -271.123840                    
V 15  21191.838224 -16037.746889  -2370.008114      0.026978                    
P 16   -748.811276  26272.274377  -1531.127387    -95.303267                    
V 16  -2658.479062   1555.050993  32409.777549     -0.037798                    
P 17  21183.668636 -15201.941949   5256.967008    166.928529                    
V 17   6363.575876  -1090.290563 -31398.738592      0.069455                    
P 18  17145.371876  17200.580212 -11365.385600    101.612070                    
V 18 -13300.026402  -3852.771742 -27012.791076      0.025384                    
P 19  17376.670221 -16491.457325  11193.916360   -236.811525                    
V 19  14034.336284  -4537.176629 -27727.749992      0.051923                    
P 20 -15074.669865   5685.582619 -21198.423568    527.508692                    
V 20  -4497.602704 -26445.831593  -4107.898428      0.000811                    
P 21 -22066.843996    505.248642 -13830.762277    -82.720664                    
V 21 -16026.574382 -10607.253445  24045.003965      0.059092                    
P 22  11790.786533  20121.946862  13019.084280   -773.069070                    
V 22  -1283.729483  16435.276642 -24549.231977     -0.024519                    
P 23  18891.413282   4095.354465  18721.392104   -154.243379                    
V 23 -18651.077868  13508.796088  15782.518390      0.022689                    
P 24 -21657.797144 -14799.231070  -5422.376659     -5.192609                    
V 24   7311.374560     64.449302 -30007.242637     -0.005887                    
P 25 -14854.522274  -3954.223217  21471.185915    -17.289012                    
V 25   -184.920701 -27723.606925  -4926.883614     -0.002489                    
P 26  -5083.858071  24428.695985   8785.086522     88.990498                    
V 26  -3637.138660 -11090.841209  28876.052902      0.083277                    
P 27  -3525.147915  17569.764505 -19608.969461   -126.658651                    
V 27 -21731.988989  11817.822634  14881.736064     -0.118618                    
P 28  12118.209655 -16643.477080 -16244.063806    754.151227                    
V 28     37.020170  21746.043145 -21346.458379     -0.016248                    
P 29 -23065.152179   2242.751149  12969.906025     38.543934                    
V 29  13883.191932  -9002.141560  26161.598211     -0.100897                    
P 30  17312.693739  -5999.870237 -19262.057929    -88.683983                    
V 30  20283.766584  13879.123039  13690.757874     -0.084637                    
P 31  -8151.668323  12887.189256  21729.843822     -4.653221                    
V 31 -23917.719668 -13861.008907   -300.033601     -0.025821                    
P 32 -20273.716226  16391.811060   4751.450119    131.828106                    
V 32  -6661.928172    590.079905 -30977.120496      0.119795                    
EOF
